ORBCOMM FM103           
1 40091U 14040F   25047.85478222  .00001559  00000+0  37403-3 0  9998
2 40091  47.0042 225.9613 0001375 106.4114 253.6923 14.57810351546543
ORBCOMM FM114           
1 41179U 15081A   25047.67490050  .00001367  00000+0  33210-3 0  9994
2 41179  47.0023 135.9321 0002172 189.9289 170.1554 14.57868393486883
ORBCOMM FM119           
1 41180U 15081B   25047.72529850  .00001355  00000+0  33005-3 0  9992
2 41180  47.0012  44.9607 0001797 256.2024 103.8662 14.57786122488149
ORBCOMM FM105           
1 41181U 15081C   25047.64607106  .00000690  00000+0  24047-3 0  9992
2 41181  47.0024  38.6330 0001028 170.5011 189.5888 14.45032208483318
ORBCOMM FM110           
1 41182U 15081D   25047.92455692  .00002450  00000+0  56645-3 0  9990
2 41182  47.0007 134.1216 0002893 292.6060  67.4519 14.57847442486793
ORBCOMM FM118           
1 41183U 15081E   25047.70219304  .00002249  00000+0  52385-3 0  9998
2 41183  47.0031 135.6004 0003375 289.8458  70.2064 14.57768492486869
ORBCOMM FM112           
1 41184U 15081F   25047.70188895  .00001534  00000+0  36882-3 0  9999
2 41184  46.9997  44.2405 0001156 245.6163 114.4602 14.57790575488089
ORBCOMM FM113           
1 41185U 15081G   25047.67864371  .00001362  00000+0  33160-3 0  9991
2 41185  47.0016  44.6562 0001440 252.4729 107.5999 14.57783021488060
