<?xml version="1.0" encoding="UTF-8"?>
<ndm xmlns:xsi="http://www.w3.org/2001/XMLSchema-instance" xsi:noNamespaceSchemaLocation="https://sanaregistry.org/r/ndmxml_unqualified/ndmxml-2.0.0-master-2.0.xsd">
<omm id="CCSDS_OMM_VERS" version="2.0">
<header><CREATION_DATE/><ORIGINATOR/></header><body><segment><metadata><OBJECT_NAME>ORBCOMM FM103</OBJECT_NAME><OBJECT_ID>2014-040F</OBJECT_ID><CENTER_NAME>EARTH</CENTER_NAME><REF_FRAME>TEME</REF_FRAME><TIME_SYSTEM>UTC</TIME_SYSTEM><MEAN_ELEMENT_THEORY>SGP4</MEAN_ELEMENT_THEORY></metadata><data><meanElements><EPOCH>2025-02-16T20:30:53.183808</EPOCH><MEAN_MOTION>14.57810351</MEAN_MOTION><ECCENTRICITY>.0001375</ECCENTRICITY><INCLINATION>47.0042</INCLINATION><RA_OF_ASC_NODE>225.9613</RA_OF_ASC_NODE><ARG_OF_PERICENTER>106.4114</ARG_OF_PERICENTER><MEAN_ANOMALY>253.6923</MEAN_ANOMALY></meanElements><tleParameters><EPHEMERIS_TYPE>0</EPHEMERIS_TYPE><CLASSIFICATION_TYPE>U</CLASSIFICATION_TYPE><NORAD_CAT_ID>40091</NORAD_CAT_ID><ELEMENT_SET_NO>999</ELEMENT_SET_NO><REV_AT_EPOCH>54654</REV_AT_EPOCH><BSTAR>.37403E-3</BSTAR><MEAN_MOTION_DOT>.1559E-4</MEAN_MOTION_DOT><MEAN_MOTION_DDOT>0</MEAN_MOTION_DDOT></tleParameters></data></segment></body></omm>
<omm id="CCSDS_OMM_VERS" version="2.0">
<header><CREATION_DATE/><ORIGINATOR/></header><body><segment><metadata><OBJECT_NAME>ORBCOMM FM114</OBJECT_NAME><OBJECT_ID>2015-081A</OBJECT_ID><CENTER_NAME>EARTH</CENTER_NAME><REF_FRAME>TEME</REF_FRAME><TIME_SYSTEM>UTC</TIME_SYSTEM><MEAN_ELEMENT_THEORY>SGP4</MEAN_ELEMENT_THEORY></metadata><data><meanElements><EPOCH>2025-02-16T16:11:51.403200</EPOCH><MEAN_MOTION>14.57868393</MEAN_MOTION><ECCENTRICITY>.0002172</ECCENTRICITY><INCLINATION>47.0023</INCLINATION><RA_OF_ASC_NODE>135.9321</RA_OF_ASC_NODE><ARG_OF_PERICENTER>189.9289</ARG_OF_PERICENTER><MEAN_ANOMALY>170.1554</MEAN_ANOMALY></meanElements><tleParameters><EPHEMERIS_TYPE>0</EPHEMERIS_TYPE><CLASSIFICATION_TYPE>U</CLASSIFICATION_TYPE><NORAD_CAT_ID>41179</NORAD_CAT_ID><ELEMENT_SET_NO>999</ELEMENT_SET_NO><REV_AT_EPOCH>48688</REV_AT_EPOCH><BSTAR>.3321E-3</BSTAR><MEAN_MOTION_DOT>.1367E-4</MEAN_MOTION_DOT><MEAN_MOTION_DDOT>0</MEAN_MOTION_DDOT></tleParameters></data></segment></body></omm>
<omm id="CCSDS_OMM_VERS" version="2.0">
<header><CREATION_DATE/><ORIGINATOR/></header><body><segment><metadata><OBJECT_NAME>ORBCOMM FM119</OBJECT_NAME><OBJECT_ID>2015-081B</OBJECT_ID><CENTER_NAME>EARTH</CENTER_NAME><REF_FRAME>TEME</REF_FRAME><TIME_SYSTEM>UTC</TIME_SYSTEM><MEAN_ELEMENT_THEORY>SGP4</MEAN_ELEMENT_THEORY></metadata><data><meanElements><EPOCH>2025-02-16T17:24:25.790400</EPOCH><MEAN_MOTION>14.57786122</MEAN_MOTION><ECCENTRICITY>.0001797</ECCENTRICITY><INCLINATION>47.0012</INCLINATION><RA_OF_ASC_NODE>44.9607</RA_OF_ASC_NODE><ARG_OF_PERICENTER>256.2024</ARG_OF_PERICENTER><MEAN_ANOMALY>103.8662</MEAN_ANOMALY></meanElements><tleParameters><EPHEMERIS_TYPE>0</EPHEMERIS_TYPE><CLASSIFICATION_TYPE>U</CLASSIFICATION_TYPE><NORAD_CAT_ID>41180</NORAD_CAT_ID><ELEMENT_SET_NO>999</ELEMENT_SET_NO><REV_AT_EPOCH>48814</REV_AT_EPOCH><BSTAR>.33005E-3</BSTAR><MEAN_MOTION_DOT>.1355E-4</MEAN_MOTION_DOT><MEAN_MOTION_DDOT>0</MEAN_MOTION_DDOT></tleParameters></data></segment></body></omm>
<omm id="CCSDS_OMM_VERS" version="2.0">
<header><CREATION_DATE/><ORIGINATOR/></header><body><segment><metadata><OBJECT_NAME>ORBCOMM FM105</OBJECT_NAME><OBJECT_ID>2015-081C</OBJECT_ID><CENTER_NAME>EARTH</CENTER_NAME><REF_FRAME>TEME</REF_FRAME><TIME_SYSTEM>UTC</TIME_SYSTEM><MEAN_ELEMENT_THEORY>SGP4</MEAN_ELEMENT_THEORY></metadata><data><meanElements><EPOCH>2025-02-16T15:30:20.539584</EPOCH><MEAN_MOTION>14.45032208</MEAN_MOTION><ECCENTRICITY>.0001028</ECCENTRICITY><INCLINATION>47.0024</INCLINATION><RA_OF_ASC_NODE>38.6330</RA_OF_ASC_NODE><ARG_OF_PERICENTER>170.5011</ARG_OF_PERICENTER><MEAN_ANOMALY>189.5888</MEAN_ANOMALY></meanElements><tleParameters><EPHEMERIS_TYPE>0</EPHEMERIS_TYPE><CLASSIFICATION_TYPE>U</CLASSIFICATION_TYPE><NORAD_CAT_ID>41181</NORAD_CAT_ID><ELEMENT_SET_NO>999</ELEMENT_SET_NO><REV_AT_EPOCH>48331</REV_AT_EPOCH><BSTAR>.24047E-3</BSTAR><MEAN_MOTION_DOT>.69E-5</MEAN_MOTION_DOT><MEAN_MOTION_DDOT>0</MEAN_MOTION_DDOT></tleParameters></data></segment></body></omm>
<omm id="CCSDS_OMM_VERS" version="2.0">
<header><CREATION_DATE/><ORIGINATOR/></header><body><segment><metadata><OBJECT_NAME>ORBCOMM FM110</OBJECT_NAME><OBJECT_ID>2015-081D</OBJECT_ID><CENTER_NAME>EARTH</CENTER_NAME><REF_FRAME>TEME</REF_FRAME><TIME_SYSTEM>UTC</TIME_SYSTEM><MEAN_ELEMENT_THEORY>SGP4</MEAN_ELEMENT_THEORY></metadata><data><meanElements><EPOCH>2025-02-16T22:11:21.717888</EPOCH><MEAN_MOTION>14.57847442</MEAN_MOTION><ECCENTRICITY>.0002893</ECCENTRICITY><INCLINATION>47.0007</INCLINATION><RA_OF_ASC_NODE>134.1216</RA_OF_ASC_NODE><ARG_OF_PERICENTER>292.6060</ARG_OF_PERICENTER><MEAN_ANOMALY>67.4519</MEAN_ANOMALY></meanElements><tleParameters><EPHEMERIS_TYPE>0</EPHEMERIS_TYPE><CLASSIFICATION_TYPE>U</CLASSIFICATION_TYPE><NORAD_CAT_ID>41182</NORAD_CAT_ID><ELEMENT_SET_NO>999</ELEMENT_SET_NO><REV_AT_EPOCH>48679</REV_AT_EPOCH><BSTAR>.56645E-3</BSTAR><MEAN_MOTION_DOT>.245E-4</MEAN_MOTION_DOT><MEAN_MOTION_DDOT>0</MEAN_MOTION_DDOT></tleParameters></data></segment></body></omm>
<omm id="CCSDS_OMM_VERS" version="2.0">
<header><CREATION_DATE/><ORIGINATOR/></header><body><segment><metadata><OBJECT_NAME>ORBCOMM FM118</OBJECT_NAME><OBJECT_ID>2015-081E</OBJECT_ID><CENTER_NAME>EARTH</CENTER_NAME><REF_FRAME>TEME</REF_FRAME><TIME_SYSTEM>UTC</TIME_SYSTEM><MEAN_ELEMENT_THEORY>SGP4</MEAN_ELEMENT_THEORY></metadata><data><meanElements><EPOCH>2025-02-16T16:51:09.478656</EPOCH><MEAN_MOTION>14.57768492</MEAN_MOTION><ECCENTRICITY>.0003375</ECCENTRICITY><INCLINATION>47.0031</INCLINATION><RA_OF_ASC_NODE>135.6004</RA_OF_ASC_NODE><ARG_OF_PERICENTER>289.8458</ARG_OF_PERICENTER><MEAN_ANOMALY>70.2064</MEAN_ANOMALY></meanElements><tleParameters><EPHEMERIS_TYPE>0</EPHEMERIS_TYPE><CLASSIFICATION_TYPE>U</CLASSIFICATION_TYPE><NORAD_CAT_ID>41183</NORAD_CAT_ID><ELEMENT_SET_NO>999</ELEMENT_SET_NO><REV_AT_EPOCH>48686</REV_AT_EPOCH><BSTAR>.52385E-3</BSTAR><MEAN_MOTION_DOT>.2249E-4</MEAN_MOTION_DOT><MEAN_MOTION_DDOT>0</MEAN_MOTION_DDOT></tleParameters></data></segment></body></omm>
<omm id="CCSDS_OMM_VERS" version="2.0">
<header><CREATION_DATE/><ORIGINATOR/></header><body><segment><metadata><OBJECT_NAME>ORBCOMM FM112</OBJECT_NAME><OBJECT_ID>2015-081F</OBJECT_ID><CENTER_NAME>EARTH</CENTER_NAME><REF_FRAME>TEME</REF_FRAME><TIME_SYSTEM>UTC</TIME_SYSTEM><MEAN_ELEMENT_THEORY>SGP4</MEAN_ELEMENT_THEORY></metadata><data><meanElements><EPOCH>2025-02-16T16:50:43.205280</EPOCH><MEAN_MOTION>14.57790575</MEAN_MOTION><ECCENTRICITY>.0001156</ECCENTRICITY><INCLINATION>46.9997</INCLINATION><RA_OF_ASC_NODE>44.2405</RA_OF_ASC_NODE><ARG_OF_PERICENTER>245.6163</ARG_OF_PERICENTER><MEAN_ANOMALY>114.4602</MEAN_ANOMALY></meanElements><tleParameters><EPHEMERIS_TYPE>0</EPHEMERIS_TYPE><CLASSIFICATION_TYPE>U</CLASSIFICATION_TYPE><NORAD_CAT_ID>41184</NORAD_CAT_ID><ELEMENT_SET_NO>999</ELEMENT_SET_NO><REV_AT_EPOCH>48808</REV_AT_EPOCH><BSTAR>.36882E-3</BSTAR><MEAN_MOTION_DOT>.1534E-4</MEAN_MOTION_DOT><MEAN_MOTION_DDOT>0</MEAN_MOTION_DDOT></tleParameters></data></segment></body></omm>
<omm id="CCSDS_OMM_VERS" version="2.0">
<header><CREATION_DATE/><ORIGINATOR/></header><body><segment><metadata><OBJECT_NAME>ORBCOMM FM113</OBJECT_NAME><OBJECT_ID>2015-081G</OBJECT_ID><CENTER_NAME>EARTH</CENTER_NAME><REF_FRAME>TEME</REF_FRAME><TIME_SYSTEM>UTC</TIME_SYSTEM><MEAN_ELEMENT_THEORY>SGP4</MEAN_ELEMENT_THEORY></metadata><data><meanElements><EPOCH>2025-02-16T16:17:14.816544</EPOCH><MEAN_MOTION>14.57783021</MEAN_MOTION><ECCENTRICITY>.000144</ECCENTRICITY><INCLINATION>47.0016</INCLINATION><RA_OF_ASC_NODE>44.6562</RA_OF_ASC_NODE><ARG_OF_PERICENTER>252.4729</ARG_OF_PERICENTER><MEAN_ANOMALY>107.5999</MEAN_ANOMALY></meanElements><tleParameters><EPHEMERIS_TYPE>0</EPHEMERIS_TYPE><CLASSIFICATION_TYPE>U</CLASSIFICATION_TYPE><NORAD_CAT_ID>41185</NORAD_CAT_ID><ELEMENT_SET_NO>999</ELEMENT_SET_NO><REV_AT_EPOCH>48806</REV_AT_EPOCH><BSTAR>.3316E-3</BSTAR><MEAN_MOTION_DOT>.1362E-4</MEAN_MOTION_DOT><MEAN_MOTION_DDOT>0</MEAN_MOTION_DDOT></tleParameters></data></segment></body></omm>

</ndm>
